CCSDS_OMM_VERS = 2.0
CREATION_DATE  = 
ORIGINATOR     = 

OBJECT_NAME    = SL-14 R/B
OBJECT_ID      = 1986-046B
CENTER_NAME    = EARTH
REF_FRAME      = TEME
TIME_SYSTEM    = UTC
MEAN_ELEMENT_THEORY = SGP/SGP4

EPOCH          = 2025-12-28T00:07:24.500352
MEAN_MOTION    = 14.85502169
ECCENTRICITY   = .0024578
INCLINATION    = 82.4819
RA_OF_ASC_NODE = 147.8973
ARG_OF_PERICENTER = 104.1863
MEAN_ANOMALY   = 256.2086

EPHEMERIS_TYPE = 0
CLASSIFICATION_TYPE = U
NORAD_CAT_ID   = 16792
ELEMENT_SET_NO = 999
REV_AT_EPOCH   = 11576
BSTAR          = .82372E-4
MEAN_MOTION_DOT = .739E-5
MEAN_MOTION_DDOT = 0

CCSDS_OMM_VERS = 2.0
CREATION_DATE  = 
ORIGINATOR     = 

OBJECT_NAME    = SL-14 R/B
OBJECT_ID      = 1986-055B
CENTER_NAME    = EARTH
REF_FRAME      = TEME
TIME_SYSTEM    = UTC
MEAN_ELEMENT_THEORY = SGP/SGP4

EPOCH          = 2025-12-27T22:41:48.271776
MEAN_MOTION    = 14.85545897
ECCENTRICITY   = .0018226
INCLINATION    = 82.5192
RA_OF_ASC_NODE = 194.0838
ARG_OF_PERICENTER = 205.6376
MEAN_ANOMALY   = 269.9383

EPHEMERIS_TYPE = 0
CLASSIFICATION_TYPE = U
NORAD_CAT_ID   = 16882
ELEMENT_SET_NO = 999
REV_AT_EPOCH   = 10871
BSTAR          = .70171E-4
MEAN_MOTION_DOT = .632E-5
MEAN_MOTION_DDOT = 0

CCSDS_OMM_VERS = 2.0
CREATION_DATE  = 
ORIGINATOR     = 

OBJECT_NAME    = AJISAI (EGS)
OBJECT_ID      = 1986-061A
CENTER_NAME    = EARTH
REF_FRAME      = TEME
TIME_SYSTEM    = UTC
MEAN_ELEMENT_THEORY = SGP/SGP4

EPOCH          = 2025-12-28T04:12:26.930880
MEAN_MOTION    = 12.44514451
ECCENTRICITY   = .0011317
INCLINATION    = 50.0112
RA_OF_ASC_NODE = 313.2543
ARG_OF_PERICENTER = 104.6401
MEAN_ANOMALY   = 24.4130

EPHEMERIS_TYPE = 0
CLASSIFICATION_TYPE = U
NORAD_CAT_ID   = 16908
ELEMENT_SET_NO = 999
REV_AT_EPOCH   = 45909
BSTAR          = .63749E-4
MEAN_MOTION_DOT = -.88E-6
MEAN_MOTION_DDOT = 0

CCSDS_OMM_VERS = 2.0
CREATION_DATE  = 
ORIGINATOR     = 

OBJECT_NAME    = COSMOS 1812
OBJECT_ID      = 1987-003A
CENTER_NAME    = EARTH
REF_FRAME      = TEME
TIME_SYSTEM    = UTC
MEAN_ELEMENT_THEORY = SGP/SGP4

EPOCH          = 2025-12-27T19:58:14.747232
MEAN_MOTION    = 15.78750490
ECCENTRICITY   = .00059823
INCLINATION    = 82.4866
RA_OF_ASC_NODE = 275.6431
ARG_OF_PERICENTER = 65.1357
MEAN_ANOMALY   = 295.0530

EPHEMERIS_TYPE = 0
CLASSIFICATION_TYPE = U
NORAD_CAT_ID   = 17295
ELEMENT_SET_NO = 999
REV_AT_EPOCH   = 13303
BSTAR          = .75621534E-3
MEAN_MOTION_DOT = .134091E-2
MEAN_MOTION_DDOT = 0

CCSDS_OMM_VERS = 2.0
CREATION_DATE  = 
ORIGINATOR     = 

OBJECT_NAME    = SL-14 R/B
OBJECT_ID      = 1987-024B
CENTER_NAME    = EARTH
REF_FRAME      = TEME
TIME_SYSTEM    = UTC
MEAN_ELEMENT_THEORY = SGP/SGP4

EPOCH          = 2025-12-27T22:19:02.288640
MEAN_MOTION    = 14.86041090
ECCENTRICITY   = .0019316
INCLINATION    = 82.5280
RA_OF_ASC_NODE = 160.1846
ARG_OF_PERICENTER = 135.1814
MEAN_ANOMALY   = 225.0967

EPHEMERIS_TYPE = 0
CLASSIFICATION_TYPE = U
NORAD_CAT_ID   = 17567
ELEMENT_SET_NO = 999
REV_AT_EPOCH   = 7747
BSTAR          = .86356E-4
MEAN_MOTION_DOT = .782E-5
MEAN_MOTION_DDOT = 0

CCSDS_OMM_VERS = 2.0
CREATION_DATE  = 
ORIGINATOR     = 

OBJECT_NAME    = COSMOS 1833
OBJECT_ID      = 1987-027A
CENTER_NAME    = EARTH
REF_FRAME      = TEME
TIME_SYSTEM    = UTC
MEAN_ELEMENT_THEORY = SGP/SGP4

EPOCH          = 2025-12-28T01:54:21.773088
MEAN_MOTION    = 14.13030201
ECCENTRICITY   = .0023261
INCLINATION    = 70.9169
RA_OF_ASC_NODE = 116.5318
ARG_OF_PERICENTER = 310.3856
MEAN_ANOMALY   = 49.5234

EPHEMERIS_TYPE = 0
CLASSIFICATION_TYPE = U
NORAD_CAT_ID   = 17589
ELEMENT_SET_NO = 999
REV_AT_EPOCH   = 20
BSTAR          = .19412E-3
MEAN_MOTION_DOT = .315E-5
MEAN_MOTION_DDOT = 0

CCSDS_OMM_VERS = 2.0
CREATION_DATE  = 
ORIGINATOR     = 

OBJECT_NAME    = SL-16 R/B
OBJECT_ID      = 1987-027B
CENTER_NAME    = EARTH
REF_FRAME      = TEME
TIME_SYSTEM    = UTC
MEAN_ELEMENT_THEORY = SGP/SGP4

EPOCH          = 2025-12-28T04:33:35.378784
MEAN_MOTION    = 14.17156344
ECCENTRICITY   = .0007151
INCLINATION    = 71.0036
RA_OF_ASC_NODE = 67.1625
ARG_OF_PERICENTER = 243.5000
MEAN_ANOMALY   = 116.5391

EPHEMERIS_TYPE = 0
CLASSIFICATION_TYPE = U
NORAD_CAT_ID   = 17590
ELEMENT_SET_NO = 999
REV_AT_EPOCH   = 521
BSTAR          = -.63866E-4
MEAN_MOTION_DOT = -.177E-5
MEAN_MOTION_DDOT = 0

CCSDS_OMM_VERS = 2.0
CREATION_DATE  = 
ORIGINATOR     = 

OBJECT_NAME    = SL-14 R/B
OBJECT_ID      = 1987-038B
CENTER_NAME    = EARTH
REF_FRAME      = TEME
TIME_SYSTEM    = UTC
MEAN_ELEMENT_THEORY = SGP/SGP4

EPOCH          = 2025-12-28T02:09:39.334176
MEAN_MOTION    = 14.85276428
ECCENTRICITY   = .0020419
INCLINATION    = 82.5009
RA_OF_ASC_NODE = 4.2410
ARG_OF_PERICENTER = 44.8570
MEAN_ANOMALY   = 315.4292

EPHEMERIS_TYPE = 0
CLASSIFICATION_TYPE = U
NORAD_CAT_ID   = 17912
ELEMENT_SET_NO = 999
REV_AT_EPOCH   = 6860
BSTAR          = .76102E-4
MEAN_MOTION_DOT = .68E-5
MEAN_MOTION_DDOT = 0

CCSDS_OMM_VERS = 2.0
CREATION_DATE  = 
ORIGINATOR     = 

OBJECT_NAME    = COSMOS 1844
OBJECT_ID      = 1987-041A
CENTER_NAME    = EARTH
REF_FRAME      = TEME
TIME_SYSTEM    = UTC
MEAN_ELEMENT_THEORY = SGP/SGP4

EPOCH          = 2025-12-27T21:46:33.960864
MEAN_MOTION    = 14.14533683
ECCENTRICITY   = .0029377
INCLINATION    = 70.8970
RA_OF_ASC_NODE = 185.5798
ARG_OF_PERICENTER = 133.1057
MEAN_ANOMALY   = 227.2530

EPHEMERIS_TYPE = 0
CLASSIFICATION_TYPE = U
NORAD_CAT_ID   = 17973
ELEMENT_SET_NO = 999
REV_AT_EPOCH   = 99343
BSTAR          = .21102E-3
MEAN_MOTION_DOT = .358E-5
MEAN_MOTION_DDOT = 0

CCSDS_OMM_VERS = 2.0
CREATION_DATE  = 
ORIGINATOR     = 

OBJECT_NAME    = SL-14 R/B
OBJECT_ID      = 1987-055B
CENTER_NAME    = EARTH
REF_FRAME      = TEME
TIME_SYSTEM    = UTC
MEAN_ELEMENT_THEORY = SGP/SGP4

EPOCH          = 2025-12-27T21:03:06.167808
MEAN_MOTION    = 14.85536983
ECCENTRICITY   = .0019244
INCLINATION    = 82.4989
RA_OF_ASC_NODE = 56.7218
ARG_OF_PERICENTER = 249.4819
MEAN_ANOMALY   = 110.4332

EPHEMERIS_TYPE = 0
CLASSIFICATION_TYPE = U
NORAD_CAT_ID   = 18153
ELEMENT_SET_NO = 999
REV_AT_EPOCH   = 5927
BSTAR          = .67106E-4
MEAN_MOTION_DOT = .605E-5
MEAN_MOTION_DDOT = 0

CCSDS_OMM_VERS = 2.0
CREATION_DATE  = 
ORIGINATOR     = 

OBJECT_NAME    = COSMOS 1867
OBJECT_ID      = 1987-060A
CENTER_NAME    = EARTH
REF_FRAME      = TEME
TIME_SYSTEM    = UTC
MEAN_ELEMENT_THEORY = SGP/SGP4

EPOCH          = 2025-12-28T02:41:42.679392
MEAN_MOTION    = 14.31488758
ECCENTRICITY   = .0013695
INCLINATION    = 65.0093
RA_OF_ASC_NODE = 147.1529
ARG_OF_PERICENTER = 272.6280
MEAN_ANOMALY   = 87.3237

EPHEMERIS_TYPE = 0
CLASSIFICATION_TYPE = U
NORAD_CAT_ID   = 18187
ELEMENT_SET_NO = 999
REV_AT_EPOCH   = 969
BSTAR          = .50737E-4
MEAN_MOTION_DOT = .35E-6
MEAN_MOTION_DDOT = 0

CCSDS_OMM_VERS = 2.0
CREATION_DATE  = 
ORIGINATOR     = 

OBJECT_NAME    = SL-14 R/B
OBJECT_ID      = 1988-001B
CENTER_NAME    = EARTH
REF_FRAME      = TEME
TIME_SYSTEM    = UTC
MEAN_ELEMENT_THEORY = SGP/SGP4

EPOCH          = 2025-12-28T03:17:35.559168
MEAN_MOTION    = 14.85440189
ECCENTRICITY   = .0019507
INCLINATION    = 82.5132
RA_OF_ASC_NODE = 262.6662
ARG_OF_PERICENTER = 112.9471
MEAN_ANOMALY   = 247.3806

EPHEMERIS_TYPE = 0
CLASSIFICATION_TYPE = U
NORAD_CAT_ID   = 18749
ELEMENT_SET_NO = 999
REV_AT_EPOCH   = 3140
BSTAR          = .68526E-4
MEAN_MOTION_DOT = .617E-5
MEAN_MOTION_DDOT = 0

