SL-14 R/B               
1 16792U 86046B   25362.00514468  .00000739  00000+0  82372-4 0  9999
2 16792  82.4819 147.8973 0024578 104.1863 256.2086 14.85502169115767
SL-14 R/B               
1 16882U 86055B   25361.94569759  .00000632  00000+0  70171-4 0  9990
2 16882  82.5192 194.0838 0018226 205.6376 269.9383 14.85545897108718
AJISAI (EGS)            
1 16908U 86061A   25362.17531170 -.00000088  00000+0  63749-4 0  9997
2 16908  50.0112 313.2543 0011317 104.6401  24.4130 12.44514451459097
COSMOS 1812             
1 17295U 87003A   25361.83211513  .00134091  00000+0  75622-3 0  9995
2 17295  82.4866 275.6431 0005982  65.1357 295.0530 15.78750490133039
SL-14 R/B               
1 17567U 87024B   25361.92988760  .00000782  00000+0  86356-4 0  9991
2 17567  82.5280 160.1846 0019316 135.1814 225.0967 14.86041090 77471
COSMOS 1833             
1 17589U 87027A   25362.07941867  .00000315  00000+0  19412-3 0  9992
2 17589  70.9169 116.5318 0023261 310.3856  49.5234 14.13030201   203
SL-16 R/B               
1 17590U 87027B   25362.18999281 -.00000177  00000+0 -63866-4 0  9990
2 17590  71.0036  67.1625 0007151 243.5000 116.5391 14.17156344  5216
SL-14 R/B               
1 17912U 87038B   25362.09003859  .00000680  00000+0  76102-4 0  9991
2 17912  82.5009   4.2410 0020419  44.8570 315.4292 14.85276428 68604
COSMOS 1844             
1 17973U 87041A   25361.90733751  .00000358  00000+0  21102-3 0  9993
2 17973  70.8970 185.5798 0029377 133.1057 227.2530 14.14533683993438
SL-14 R/B               
1 18153U 87055B   25361.87715472  .00000605  00000+0  67106-4 0  9995
2 18153  82.4989  56.7218 0019244 249.4819 110.4332 14.85536983 59275
COSMOS 1867             
1 18187U 87060A   25362.11229953  .00000035  00000+0  50737-4 0  9999
2 18187  65.0093 147.1529 0013695 272.6280  87.3237 14.31488758  9693
SL-14 R/B               
1 18749U 88001B   25362.13721712  .00000617  00000+0  68526-4 0  9992
2 18749  82.5132 262.6662 0019507 112.9471 247.3806 14.85440189 31401
